NORAD_CAT_ID,OBJECT_NAME,OBJECT_TYPE,EPOCH,MEAN_MOTION,ECCENTRICITY,INCLINATION,RA_OF_ASC_NODE,ARG_OF_PERICENTER,MEAN_ANOMALY,BSTAR,MEAN_MOTION_DOT,MEAN_MOTION_DDOT,TLE_LINE0,TLE_LINE1,TLE_LINE2,SEMIMAJOR_AXIS,PERIOD,APOGEE,PERIGEE,DECAYED
52997.0,STARLINK-4301,PAYLOAD,2022-10-14 14:00:01,15.08837144,0.0002237,53.2173,270.1462,31.1431,160.0043,-4.0292e-05,-9.29e-06,0.0,0 STARLINK-4301,1 52997U 22076M   22287.58334491 -.00000929  00000-0 -40292-4 0  9990,2 52997  53.2173 270.1462 0002237  31.1431 160.0043 15.08837144  1303,6917.889,95.438,541.302,538.207,0.0
52997.0,STARLINK-4301,PAYLOAD,2022-10-14 22:00:00,15.08847465,0.0001974,53.2156,268.6499,38.5172,164.2434,-0.0028754,-0.0004577,0.0,0 STARLINK-4301,1 52997U 22076M   22287.91667824 -.00045770  00000-0 -28754-2 0  9996,2 52997  53.2156 268.6499 0001974  38.5172 164.2434 15.08847465  1303,6917.858,95.437,541.0880000000002,538.357,0.0
52997.0,STARLINK-4301,PAYLOAD,2022-10-15 14:00:01,15.08866753,0.0002105,53.2149,265.6594,36.515,189.4413,-0.0041894,-0.00066399,0.0,0 STARLINK-4301,1 52997U 22076M   22288.58334491 -.00066399  00000-0 -41894-2 0  9991,2 52997  53.2149 265.6594 0002105  36.5150 189.4413 15.08866753  1306,6917.799,95.436,541.12,538.207,0.0
52997.0,STARLINK-4301,PAYLOAD,2022-10-15 22:00:01,15.08943166,0.0001985,53.2158,264.1606,38.4892,199.1632,-0.019209,-0.00294559,0.0,0 STARLINK-4301,1 52997U 22076M   22288.91668981 -.00294559  00000-0 -19209-1 0  9997,2 52997  53.2158 264.1606 0001985  38.4892 199.1632 15.08943166 16001,6917.565,95.431,540.803,538.057,0.0
52997.0,STARLINK-4301,PAYLOAD,2022-10-16 06:00:00,15.08823659,0.0002259,53.2146,262.6681,38.2093,210.9272,-0.00082427,-0.00013377,0.0,0 STARLINK-4301,1 52997U 22076M   22289.25001157 -.00013377  00000-0 -82427-3 0  9992,2 52997  53.2146 262.6681 0002259  38.2093 210.9272 15.08823659 16051,6917.93,95.439,541.3580000000002,538.2330000000002,0.0
52997.0,STARLINK-4301,PAYLOAD,2022-10-16 14:00:01,15.08837657,0.0002159,53.2147,261.1709,37.4847,223.2166,-0.0011829,-0.00019064,0.0,0 STARLINK-4301,1 52997U 22076M   22289.58334491 -.00019064  00000-0 -11829-2 0  9994,2 52997  53.2147 261.1709 0002159  37.4847 223.2166 15.08837657  1308,6917.888000000001,95.438,541.246,538.259,0.0
52997.0,STARLINK-4301,PAYLOAD,2022-10-16 22:00:00,15.08832729,0.0002032999999999,53.215,259.6729,43.271,229.0131,0.0020797,0.00032959,0.0,0 STARLINK-4301,1 52997U 22076M   22289.91667824  .00032959  00000-0  20797-2 0  9990,2 52997  53.2150 259.6729 0002033  43.2710 229.0131 15.08832729  1302,6917.903,95.438,541.174,538.361,0.0
52997.0,STARLINK-4301,PAYLOAD,2022-10-17 06:00:00,15.08831928,0.0002255999999999,53.2152,258.1789,37.9278,245.9562,-0.0003097,-5.213e-05,0.0,0 STARLINK-4301,1 52997U 22076M   22290.25001157 -.00005213  00000-0 -30970-3 0  9990,2 52997  53.2152 258.1789 0002256  37.9278 245.9562 15.08831928 16200,6917.905,95.438,541.331,538.2090000000002,0.0
52997.0,STARLINK-4301,PAYLOAD,2022-10-17 14:00:01,15.08853836,0.0002108,53.2153,256.6811,37.5827,257.8886,-0.0011321,-0.00018268,0.0,0 STARLINK-4301,1 52997U 22076M   22290.58334491 -.00018268  00000-0 -11321-2 0  9998,2 52997  53.2153 256.6811 0002108  37.5827 257.8886 15.08853836  1300,6917.8380000000025,95.437,541.161,538.245,0.0
52997.0,STARLINK-4301,PAYLOAD,2022-10-17 22:00:00,15.0886515,0.0001928,53.2152,255.1837,42.2436,264.8322,-0.00094532,-0.00015312,0.0,0 STARLINK-4301,1 52997U 22076M   22290.91667824 -.00015312  00000-0 -94532-3 0  9997,2 52997  53.2152 255.1837 0001928  42.2436 264.8322 15.08865150  1304,6917.804,95.436,541.002,538.335,0.0
52997.0,STARLINK-4301,PAYLOAD,2022-10-18 00:00:00,15.08878419,0.0001955999999999,53.2156,254.8099,40.954,359.0234,-0.0032311999999999,-0.00051401,0.0,0 STARLINK-4301,1 52997U 22076M   22291.00001157 -.00051401  00000-0 -32312-2 0  9995,2 52997  53.2156 254.8099 0001956  40.9540 359.0234 15.08878419 16314,6917.763000000001,95.435,540.981,538.275,0.0
52997.0,STARLINK-4301,PAYLOAD,2022-10-18 14:00:01,15.08835345,0.0001969,53.2147,252.1924,34.9265,295.3316,-0.0011411,-0.00018401,0.0,0 STARLINK-4301,1 52997U 22076M   22291.58334491 -.00018401  00000-0 -11411-2 0  9998,2 52997  53.2147 252.1924 0001969  34.9265 295.3316 15.08835345  1300,6917.895,95.438,541.122,538.3969999999998,0.0
52997.0,STARLINK-4301,PAYLOAD,2022-10-18 22:00:00,15.08832857,0.0001859,53.2149,250.6955,39.415,302.4178,0.0013587999999999,0.00021399,0.0,0 STARLINK-4301,1 52997U 22076M   22291.91667824  .00021399  00000-0  13588-2 0  9999,2 52997  53.2149 250.6955 0001859  39.4150 302.4178 15.08832857 16453,6917.901999999999,95.438,541.053,538.481,0.0
52997.0,STARLINK-4301,PAYLOAD,2022-10-19 14:00:01,15.08842008,0.0001889,53.2143,247.7031,35.36400000000001,329.6647,-0.0011593,-0.00018692,0.0,0 STARLINK-4301,1 52997U 22076M   22292.58334491 -.00018692  00000-0 -11593-2 0  9992,2 52997  53.2143 247.7031 0001889  35.3640 329.6647 15.08842008  1300,6917.874,95.437,541.0459999999998,538.432,0.0
52997.0,STARLINK-4301,PAYLOAD,2022-10-19 22:00:00,15.08844677,0.0001813,53.2145,246.2064,39.9527,336.6596,0.00086419,0.00013494,0.0,0 STARLINK-4301,1 52997U 22076M   22292.91667824  .00013494  00000-0  86419-3 0  9991,2 52997  53.2145 246.2064 0001813  39.9527 336.6596 15.08844677  1308,6917.866,95.437,540.985,538.477,0.0
52997.0,STARLINK-4301,PAYLOAD,2022-10-20 08:00:01,15.08822974,0.0002078,53.2139,244.3374,36.4501,84.6765,0.0017297,0.00027335,0.0,0 STARLINK-4301,1 52997U 22076M   22293.33334491  .00027335  00000-0  17297-2 0  9995,2 52997  53.2139 244.3374 0002078  36.4501  84.6765 15.08822974 16672,6917.932,95.439,541.235,538.36,0.0
52997.0,STARLINK-4301,PAYLOAD,2022-10-20 14:00:01,15.08840123,0.0001973,53.2146,243.2131,40.4881,359.3281,-0.00043706,-7.237e-05,0.0,0 STARLINK-4301,1 52997U 22076M   22293.58334491 -.00007237  00000-0 -43706-3 0  9998,2 52997  53.2146 243.2131 0001973  40.4881 359.3281 15.08840123  1303,6917.88,95.438,541.11,538.38,0.0
52997.0,STARLINK-4301,PAYLOAD,2022-10-20 22:00:00,15.08864296,0.0001898,53.2145,241.7163,44.5836,6.8177,-0.0013912,-0.00022376,0.0,0 STARLINK-4301,1 52997U 22076M   22293.91667824 -.00022376  00000-0 -13912-2 0  9990,2 52997  53.2145 241.7163 0001898  44.5836   6.8177 15.08864296  1306,6917.806,95.436,540.984,538.3580000000002,0.0
52997.0,STARLINK-4301,PAYLOAD,2022-10-21 06:00:00,15.08812039,0.0002092,53.2144,240.2221,38.6239,24.3953,0.0023634,0.00037498,0.0,0 STARLINK-4301,1 52997U 22076M   22294.25001157  .00037498  00000-0  23634-2 0  9990,2 52997  53.2144 240.2221 0002092  38.6239  24.3953 15.08812039 16808,6917.965999999999,95.439,541.278,538.384,0.0
52997.0,STARLINK-4301,PAYLOAD,2022-10-21 14:00:01,15.08842104,0.0001956999999999,53.2146,238.7237,40.6268,33.9761,0.00012475,1.698e-05,0.0,0 STARLINK-4301,1 52997U 22076M   22294.58334491  .00001698  00000-0  12475-3 0  9991,2 52997  53.2146 238.7237 0001957  40.6268  33.9761 15.08842104  1301,6917.874,95.437,541.0930000000002,538.385,0.0
52997.0,STARLINK-4301,PAYLOAD,2022-10-21 22:00:00,15.08846233,0.0001916,53.214,237.2276,42.3754,43.8033,-7.778800000000001e-05,-1.526e-05,0.0,0 STARLINK-4301,1 52997U 22076M   22294.91667824 -.00001526  00000-0 -77788-4 0  9998,2 52997  53.2140 237.2276 0001916  42.3754  43.8033 15.08846233 16918,6917.861,95.437,541.052,538.401,0.0
52997.0,STARLINK-4301,PAYLOAD,2022-10-22 14:00:01,15.08834332,0.000193,53.2143,234.2346,39.1856,70.2092,0.00044254,6.761e-05,0.0,0 STARLINK-4301,1 52997U 22076M   22295.58334491  .00006761  00000-0  44254-3 0  9998,2 52997  53.2143 234.2346 0001930  39.1856  70.2092 15.08834332  1302,6917.898,95.438,541.0980000000002,538.428,0.0
52997.0,STARLINK-4301,PAYLOAD,2022-10-22 22:00:00,15.08866757,0.0002005999999999,53.2145,232.7381,43.4462,77.5373,-0.0026419,-0.0004212,0.0,0 STARLINK-4301,1 52997U 22076M   22295.91667824 -.00042120  00000-0 -26419-2 0  9997,2 52997  53.2145 232.7381 0002006  43.4462  77.5373 15.08866757  1300,6917.799,95.436,541.0509999999998,538.276,0.0
52997.0,STARLINK-4301,PAYLOAD,2022-10-23 00:00:02,15.08855393,0.0002072,53.2145,232.3645,42.3989,171.5545,-0.0019745,-0.00031589,0.0,0 STARLINK-4301,1 52997U 22076M   22296.00002315 -.00031589  00000-0 -19745-2 0  9997,2 52997  53.2145 232.3645 0002072  42.3989 171.5545 15.08855393 17075,6917.833000000001,95.437,541.132,538.265,0.0
52997.0,STARLINK-4301,PAYLOAD,2022-10-23 14:00:01,15.08863716,0.0002052,53.215,229.7451,41.8623,102.3375,-0.00095086,-0.00015399,0.0,0 STARLINK-4301,1 52997U 22076M   22296.58334491 -.00015399  00000-0 -95086-3 0  9997,2 52997  53.2150 229.7451 0002052  41.8623 102.3375 15.08863716  1303,6917.808000000001,95.436,541.092,538.253,0.0
52997.0,STARLINK-4301,PAYLOAD,2022-10-23 22:00:00,15.08866589,0.0002025,53.2153,228.2487,42.0467,113.7638,-0.0027851,-0.00044374,0.0,0 STARLINK-4301,1 52997U 22076M   22296.91667824 -.00044374  00000-0 -27851-2 0  9992,2 52997  53.2153 228.2487 0002025  42.0467 113.7638 15.08866589  1307,6917.799,95.436,541.065,538.263,0.0
52997.0,STARLINK-4301,PAYLOAD,2022-10-24 14:00:01,15.08771936,0.0001863,53.2156,225.2557,33.8585,145.1275,0.0016764,0.00026443,0.0,0 STARLINK-4301,1 52997U 22076M   22297.58334491  .00026443  00000-0  16764-2 0  9993,2 52997  53.2156 225.2557 0001863  33.8585 145.1275 15.08771936  1300,6918.0880000000025,95.442,541.242,538.665,0.0
52997.0,STARLINK-4301,PAYLOAD,2022-10-24 16:00:00,15.08756745,0.0001858,53.2156,224.8813,35.5747,236.2973,0.0043058,0.00068751,0.0,0 STARLINK-4301,1 52997U 22076M   22297.66667824  .00068751  00000-0  43058-2 0  9995,2 52997  53.2156 224.8813 0001858  35.5747 236.2973 15.08756745 17320,6918.135,95.443,541.285,538.714,0.0
52997.0,STARLINK-4301,PAYLOAD,2022-10-24 22:00:00,15.08798687,0.0001969,53.2159,223.7599,38.1369,152.369,0.0026969999999999,0.00042848,0.0,0 STARLINK-4301,1 52997U 22076M   22297.91667824  .00042848  00000-0  26970-2 0  9996,2 52997  53.2159 223.7599 0001969  38.1369 152.3690 15.08798687  1300,6918.007,95.44,541.234,538.51,0.0
